COSMOS 2530 (RODNIK-S *)
1 43751U 18097A   26155.98014300 -.00000070  00000+0 -57967-3 0  9994
2 43751  82.5148 229.8556 0020577  65.2208 295.1010 12.42880594340773
COSMOS 2531 (RODNIK-S *)
1 43752U 18097B   26155.92222502 -.00000019  00000+0 -20654-3 0  9990
2 43752  82.5194 230.9459 0017961  83.5476 276.7649 12.42912379340784
COSMOS 2532 (RODNIK-S *)
1 43753U 18097C   26155.95047087  .00000036  00000+0  18915-3 0  9991
2 43753  82.5138 229.7199 0019353  85.3948 274.9342 12.42909415340755
MINXSS-2                
1 43758U 18099A   26155.92727967  .00036699  00000+0  74978-3 0  9992
2 43758  97.4536 231.8604 0006041 308.7747  51.2962 15.46057531412238
SIRION PATHFINDER-2     
1 43759U 18099B   26155.09975639  .00005832  00000+0  32069-3 0  9992
2 43759  97.4255 204.4687 0008286 356.1424   3.9743 15.14427297410645
AISTECHSAT 2            
1 43768U 18099L   26155.93914770  .00006948  00000+0  37208-3 0  9993
2 43768  97.4297 204.2416 0004260   3.2052 356.9207 15.15322090410422
FOX-1CLIFF (AO-95)      
1 43770U 18099N   26154.64024448  .00013080  00000+0  50433-3 0  9997
2 43770  97.4392 214.9391 0009397  44.7441 315.4554 15.26406805411154
RANGE-A                 
1 43773U 18099R   26155.68112828  .00005493  00000+0  31191-3 0  9994
2 43773  97.3965 198.6265 0011131  38.8217 321.3812 15.13275890410600
SNUSAT-2                
1 43782U 18099AA  26155.70816073  .00009361  00000+0  41667-3 0  9997
2 43782  97.4060 209.2848 0009503 348.5598  11.5420 15.21643433411139
SNUGLITE                
1 43784U 18099AC  26155.10350941  .00013539  00000+0  51508-3 0  9997
2 43784  97.3871 209.5144 0002220  11.0960 349.0328 15.26879137411320
ITASAT                  
1 43786U 18099AE  26155.76879905  .00008050  00000+0  38812-3 0  9992
2 43786  97.4029 207.5292 0013386  42.5904 317.6366 15.18892222411023
EAGLET-I                
1 43790U 18099AJ  26155.68455884  .00005320  00000+0  30584-3 0  9999
2 43790  97.4233 205.6845 0011893  36.5281 323.6759 15.12841349410446
ESEO                    
1 43792U 18099AL  26155.87388705  .00001389  00000+0  10401-3 0  9996
2 43792  97.3961 193.7899 0012513  22.6654 337.5123 15.04202214409957
THEA                    
1 43796U 18099AQ  26155.68430943  .00019415  00000+0  58082-3 0  9997
2 43796  97.4441 225.2585 0006273 338.4461  21.6517 15.34576651410770
ASTROCAST 0.1           
1 43798U 18099AS  26155.92384622  .00035961  00000+0  67118-3 0  9992
2 43798  97.4380 234.0458 0004167 251.4587 108.6211 15.48694400412535
JY1SAT (JO-97)          
1 43803U 18099AX  26155.63215683  .00018538  00000+0  57877-3 0  9999
2 43803  97.4135 218.4269 0004291 324.7580  35.3378 15.33239560411705
SUOMI-100               
1 43804U 18099AY  26155.63499493  .00013743  00000+0  50298-3 0  9996
2 43804  97.4190 216.0775 0008767 331.5428  28.5331 15.28124804411501
CENTAURI-1              
1 43809U 18099BD  26155.66762758  .00006257  00000+0  32616-3 0  9997
2 43809  97.4223 207.6565 0014404  18.7084 341.4675 15.16235341410607
GLOBAL-2                
1 43812U 18099BG  26155.67166108  .00003301  00000+0  21489-3 0  9992
2 43812  97.3555 192.7060 0005766 180.9015 179.2204 15.08593933410025
SEAHAWK-1               
1 43820U 18099BQ  26155.71623382  .00009258  00000+0  40096-3 0  9990
2 43820  97.3957 208.3933 0007901   5.2827 354.8491 15.22595245410636
SAUDISAT 5A             
1 43831U 18102A   26155.98406196  .00006660  00000+0  24677-3 0  9999
2 43831  97.3068 217.8010 0010049 167.7533 192.3952 15.27917396413817
SAUDISAT 5B             
1 43833U 18102C   26155.93950304  .00006154  00000+0  22639-3 0  9995
2 43833  97.3176 220.8045 0010690 170.6942 189.4498 15.28180184413922
ISAT                    
1 43879U 18111D   26155.87953085  .00087286  00000+0  95272-3 0  9995
2 43879  97.5897  90.1742 0003159  48.7330 311.4200 15.63074190409240
UWE-4                   
1 43880U 18111E   26154.36119365  .00034900  00000+0  73362-3 0  9996
2 43880  97.5860  82.1246 0008243  33.3192 326.8573 15.45215882408648
D-STAR ONE (SPARROW)    
1 43881U 18111F   26155.59610858  .00151593  00000+0  11997-2 0  9999
2 43881  97.6128  95.2751 0005058  99.0146 261.1689 15.70860609409395
JILIN-1 09              
1 43943U 19005B   26155.93908330  .00005922  00000+0  27485-3 0  9998
2 43943  97.4733 251.0077 0003616 119.4908 240.6688 15.20403620407286
JILIN-1 10              
1 43946U 19005E   26155.92730532  .00006757  00000+0  26877-3 0  9998
2 43946  97.4778 254.7335 0007119 331.1605  28.9238 15.25586792407447
EGYPTSAT-A (MISRSAT-A)  
1 44047U 19008A   26155.91010072  .00000766  00000+0  12899-3 0  9996
2 44047  98.0066 220.8440 0001157  86.3419 273.7921 14.72292524391434
