OBJECT_NAME,OBJECT_ID,EPOCH,MEAN_MOTION,ECCENTRICITY,INCLINATION,RA_OF_ASC_NODE,ARG_OF_PERICENTER,MEAN_ANOMALY,EPHEMERIS_TYPE,CLASSIFICATION_TYPE,NORAD_CAT_ID,ELEMENT_SET_NO,REV_AT_EPOCH,BSTAR,MEAN_MOTION_DOT,MEAN_MOTION_DDOT
COSMOS 2530 (RODNIK-S 16),2018-097A,2026-06-04T23:31:24.355200,12.42880594,.00205776,82.5148,229.8556,65.2208,295.1010,0,U,43751,999,34077,-.57967267E-3,-.7E-6,0
COSMOS 2531 (RODNIK-S 17),2018-097B,2026-06-04T22:08:00.241728,12.42912379,.00179619,82.5194,230.9459,83.5476,276.7649,0,U,43752,999,34078,-.20654478E-3,-.19E-6,0
COSMOS 2532 (RODNIK-S 18),2018-097C,2026-06-04T22:48:40.683168,12.42909415,.00193534,82.5138,229.7199,85.3948,274.9342,0,U,43753,999,34075,.18914616E-3,.36E-6,0
MINXSS-2,2018-099A,2026-06-04T22:15:16.963488,15.46057531,.00060418,97.4536,231.8604,308.7747,51.2962,0,U,43758,999,41223,.74977572E-3,.36699E-3,0
SIRION PATHFINDER-2,2018-099B,2026-06-04T02:23:38.952096,15.14427297,.0008286,97.4255,204.4687,356.1424,3.9743,0,U,43759,999,41064,.32069E-3,.5832E-4,0
AISTECHSAT 2,2018-099L,2026-06-04T22:32:22.361280,15.15322090,.00042604,97.4297,204.2416,3.2052,356.9207,0,U,43768,999,41042,.372084E-3,.6948E-4,0
FOX-1CLIFF (AO-95),2018-099N,2026-06-03T15:21:57.123072,15.26406805,.0009397,97.4392,214.9391,44.7441,315.4554,0,U,43770,999,41115,.50433E-3,.1308E-3,0
RANGE-A,2018-099R,2026-06-04T16:20:49.483392,15.13275890,.00111318,97.3965,198.6265,38.8217,321.3812,0,U,43773,999,41060,.31190625E-3,.5493E-4,0
SNUSAT-2,2018-099AA,2026-06-04T16:59:45.087072,15.21643433,.0009503,97.4060,209.2848,348.5598,11.5420,0,U,43782,999,41113,.41666879E-3,.9361E-4,0
SNUGLITE,2018-099AC,2026-06-04T02:29:03.213024,15.26879137,.000222,97.3871,209.5144,11.0960,349.0328,0,U,43784,999,41132,.51508E-3,.13539E-3,0
ITASAT,2018-099AE,2026-06-04T18:27:04.237920,15.18892222,.00133863,97.4029,207.5292,42.5904,317.6366,0,U,43786,999,41102,.38812472E-3,.805E-4,0
EAGLET-I,2018-099AJ,2026-06-04T16:25:45.883776,15.12841349,.0011893,97.4233,205.6845,36.5281,323.6759,0,U,43790,999,41044,.30584217E-3,.532E-4,0
ESEO,2018-099AL,2026-06-04T20:58:23.841120,15.04202214,.00125138,97.3961,193.7899,22.6654,337.5123,0,U,43792,999,40995,.1040083E-3,.1389E-4,0
THEA,2018-099AQ,2026-06-04T16:25:24.334752,15.34576651,.00062736,97.4441,225.2585,338.4461,21.6517,0,U,43796,999,41077,.58082021E-3,.19415E-3,0
ASTROCAST 0.1,2018-099AS,2026-06-04T22:10:20.313408,15.48694400,.0004167,97.4380,234.0458,251.4587,108.6211,0,U,43798,999,41253,.67118182E-3,.35961E-3,0
JY1SAT (JO-97),2018-099AX,2026-06-04T15:10:18.350112,15.33239560,.00042916,97.4135,218.4269,324.7580,35.3378,0,U,43803,999,41170,.57876514E-3,.18538E-3,0
SUOMI-100,2018-099AY,2026-06-04T15:14:23.561952,15.28124804,.00087679,97.4190,216.0775,331.5428,28.5331,0,U,43804,999,41150,.50297709E-3,.13743E-3,0
CENTAURI-1,2018-099BD,2026-06-04T16:01:23.022912,15.16235341,.00144046,97.4223,207.6565,18.7084,341.4675,0,U,43809,999,41060,.32616007E-3,.6257E-4,0
GLOBAL-2,2018-099BG,2026-06-04T16:07:11.517312,15.08593933,.00057662,97.3555,192.7060,180.9015,179.2204,0,U,43812,999,41002,.21488908E-3,.3301E-4,0
SEAHAWK-1,2018-099BQ,2026-06-04T17:11:22.602048,15.22595245,.00079011,97.3957,208.3933,5.2827,354.8491,0,U,43820,999,41063,.40095817E-3,.9258E-4,0
SAUDISAT 5A,2018-102A,2026-06-04T23:37:02.953344,15.27917396,.00100495,97.3068,217.8010,167.7533,192.3952,0,U,43831,999,41381,.24677123E-3,.666E-4,0
SAUDISAT 5B,2018-102C,2026-06-04T22:32:53.062656,15.28180184,.00106908,97.3176,220.8045,170.6942,189.4498,0,U,43833,999,41392,.22639317E-3,.6154E-4,0
ISAT,2018-111D,2026-06-04T21:06:31.465440,15.63074190,.00031595,97.5897,90.1742,48.7330,311.4200,0,U,43879,999,40924,.95272328E-3,.87286E-3,0
UWE-4,2018-111E,2026-06-03T08:40:07.131360,15.45215882,.00082433,97.5860,82.1246,33.3192,326.8573,0,U,43880,999,40864,.73362008E-3,.349E-3,0
D-STAR ONE (SPARROW),2018-111F,2026-06-04T14:18:23.781312,15.70860609,.00050586,97.6128,95.2751,99.0146,261.1689,0,U,43881,999,40939,.11996887E-2,.151593E-2,0
JILIN-1 09,2019-005B,2026-06-04T22:32:16.797120,15.20403620,.00036169,97.4733,251.0077,119.4908,240.6688,0,U,43943,999,40728,.27485373E-3,.5922E-4,0
JILIN-1 10,2019-005E,2026-06-04T22:15:19.179648,15.25586792,.00071193,97.4778,254.7335,331.1605,28.9238,0,U,43946,999,40744,.26877366E-3,.6757E-4,0
EGYPTSAT-A (MISRSAT-A),2019-008A,2026-06-04T21:50:32.702208,14.72292524,.00011572,98.0066,220.8440,86.3419,273.7921,0,U,44047,999,39143,.12898749E-3,.766E-5,0
